{"type":"FeatureCollection","features":[{"type":"Feature","properties":{"GEO_ID":"0500000US37127","STATE":"37","COUNTY":"127","NAME":"Nash","LSAD":"County","CENSUSAREA":540.407},"geometry":{"type":"Polygon","coordinates":[[[-77.915581,35.83659],[-77.927859,35.831508],[-77.931355,35.830165],[-78.19207,35.730443],[-78.254903,35.81773],[-78.172179,35.956301],[-78.006554,36.202663],[-77.887083,36.14384],[-77.697879,36.152981],[-77.774125,35.998742],[-77.777751,35.984635],[-77.8091,35.909272],[-77.822385,35.878216],[-77.828444,35.867208],[-77.915581,35.83659]]]}},{"type":"Feature","properties":{"GEO_ID":"0500000US37191","STATE":"37","COUNTY":"191","NAME":"Wayne","LSAD":"County","CENSUSAREA":553.087},"geometry":{"type":"Polygon","coordinates":[[[-77.805564,35.369768],[-77.831055,35.23344],[-77.83425,35.177814],[-77.893043,35.14656],[-78.043617,35.192769],[-78.163539,35.18937],[-78.304662,35.286097],[-78.153233,35.351421],[-78.154889,35.417627],[-78.064603,35.585419],[-77.823471,35.585523],[-77.824291,35.498663],[-77.826207,35.476813],[-77.827,35.431151],[-77.818414,35.415911],[-77.80559,35.407469],[-77.799961,35.382462],[-77.802742,35.372945],[-77.805258,35.370218],[-77.805564,35.369768]]]}},{"type":"Feature","properties":{"GEO_ID":"0500000US37195","STATE":"37","COUNTY":"195","NAME":"Wilson","LSAD":"County","CENSUSAREA":368.174},"geometry":{"type":"Polygon","coordinates":[[[-78.19207,35.730443],[-77.931355,35.830165],[-77.927859,35.831508],[-77.915581,35.83659],[-77.828444,35.867208],[-77.751567,35.82786],[-77.661312,35.677321],[-77.688822,35.660166],[-77.700502,35.652256],[-77.753646,35.615818],[-77.801698,35.586132],[-77.806097,35.583457],[-77.809014,35.584179],[-77.811456,35.586056],[-77.816125,35.588443],[-77.818142,35.587825],[-77.822372,35.585467],[-77.823471,35.585523],[-78.064603,35.585419],[-78.125587,35.603111],[-78.19207,35.730443]]]}},{"type":"Feature","properties":{"GEO_ID":"0500000US37065","STATE":"37","COUNTY":"065","NAME":"Edgecombe","LSAD":"County","CENSUSAREA":505.336},"geometry":{"type":"Polygon","coordinates":[[[-77.8091,35.909272],[-77.777751,35.984635],[-77.774125,35.998742],[-77.697879,36.152981],[-77.538311,36.094037],[-77.526809,36.037699],[-77.402701,36.004933],[-77.342462,35.905346],[-77.350602,35.819214],[-77.390227,35.83292],[-77.516479,35.760866],[-77.538364,35.750162],[-77.661312,35.677321],[-77.751567,35.82786],[-77.828444,35.867208],[-77.822385,35.878216],[-77.8091,35.909272]]]}},{"type":"Feature","properties":{"GEO_ID":"0500000US37147","STATE":"37","COUNTY":"147","NAME":"Pitt","LSAD":"County","CENSUSAREA":651.975},"geometry":{"type":"Polygon","coordinates":[[[-77.470067,35.420157],[-77.472532,35.425518],[-77.476,35.426684],[-77.509307,35.519569],[-77.700502,35.652256],[-77.688822,35.660166],[-77.661312,35.677321],[-77.538364,35.750162],[-77.516479,35.760866],[-77.390227,35.83292],[-77.350602,35.819214],[-77.174034,35.733026],[-77.173788,35.635336],[-77.087521,35.564047],[-77.175418,35.474071],[-77.17394,35.456715],[-77.179935,35.455811],[-77.181276,35.440975],[-77.19123,35.434744],[-77.189107,35.426036],[-77.190423,35.418955],[-77.295879,35.379163],[-77.301155,35.374239],[-77.353981,35.327988],[-77.357402,35.328827],[-77.361188,35.331852],[-77.365484,35.333651],[-77.374683,35.333825],[-77.383581,35.33536],[-77.390965,35.340047],[-77.427046,35.350424],[-77.470067,35.420157]]]}},{"type":"Feature","properties":{"GEO_ID":"0500000US37183","STATE":"37","COUNTY":"183","NAME":"Wake","LSAD":"County","CENSUSAREA":835.219},"geometry":{"type":"Polygon","coordinates":[[[-78.254903,35.81773],[-78.473733,35.701551],[-78.566633,35.62895],[-78.708629,35.519081],[-78.913296,35.583064],[-78.995054,35.610233],[-78.971335,35.675614],[-78.909427,35.842941],[-78.90617,35.867912],[-78.831781,35.867314],[-78.69793,36.012306],[-78.749,36.071246],[-78.546497,36.021804],[-78.307314,35.896587],[-78.254903,35.81773]]]}},{"type":"Feature","properties":{"GEO_ID":"0500000US37079","STATE":"37","COUNTY":"079","NAME":"Greene","LSAD":"County","CENSUSAREA":265.928},"geometry":{"type":"Polygon","coordinates":[[[-77.826207,35.476813],[-77.824291,35.498663],[-77.823471,35.585523],[-77.822372,35.585467],[-77.818142,35.587825],[-77.816125,35.588443],[-77.811456,35.586056],[-77.809014,35.584179],[-77.806097,35.583457],[-77.801698,35.586132],[-77.753646,35.615818],[-77.700502,35.652256],[-77.509307,35.519569],[-77.476,35.426684],[-77.660811,35.352757],[-77.680542,35.34776],[-77.701681,35.380597],[-77.738695,35.374869],[-77.749753,35.373241],[-77.77768,35.367682],[-77.805564,35.369768],[-77.805258,35.370218],[-77.802742,35.372945],[-77.799961,35.382462],[-77.80559,35.407469],[-77.818414,35.415911],[-77.827,35.431151],[-77.826207,35.476813]]]}},{"type":"Feature","properties":{"GEO_ID":"0500000US37101","STATE":"37","COUNTY":"101","NAME":"Johnston","LSAD":"County","CENSUSAREA":791.299},"geometry":{"type":"Polygon","coordinates":[[[-78.391146,35.262632],[-78.491383,35.263362],[-78.541262,35.315116],[-78.530282,35.333775],[-78.660555,35.496245],[-78.708629,35.519081],[-78.566633,35.62895],[-78.473733,35.701551],[-78.254903,35.81773],[-78.19207,35.730443],[-78.125587,35.603111],[-78.064603,35.585419],[-78.154889,35.417627],[-78.153233,35.351421],[-78.304662,35.286097],[-78.332587,35.279446],[-78.391146,35.262632]]]}},{"type":"Feature","properties":{"GEO_ID":"0500000US37107","STATE":"37","COUNTY":"107","NAME":"Lenoir","LSAD":"County","CENSUSAREA":400.591},"geometry":{"type":"Polygon","coordinates":[[[-77.747639,35.071354],[-77.769064,35.145471],[-77.83425,35.177814],[-77.831055,35.23344],[-77.805564,35.369768],[-77.77768,35.367682],[-77.749753,35.373241],[-77.738695,35.374869],[-77.701681,35.380597],[-77.680542,35.34776],[-77.660811,35.352757],[-77.476,35.426684],[-77.472532,35.425518],[-77.470067,35.420157],[-77.427046,35.350424],[-77.390965,35.340047],[-77.473716,35.228983],[-77.478741,35.230011],[-77.52321,35.241725],[-77.527206,35.243433],[-77.506638,35.172177],[-77.601831,35.071193],[-77.730784,35.008259],[-77.73966,35.016641],[-77.745885,35.022587],[-77.747639,35.071354]]]}}]}